[{"OBJECT_NAME":"STARLINK-30801","OBJECT_ID":"2023-167K","EPOCH":"2026-03-08T16:00:00.999936","MEAN_MOTION":15.27532887,"ECCENTRICITY":8.659e-5,"INCLINATION":42.9991,"RA_OF_ASC_NODE":149.5782,"ARG_OF_PERICENTER":243.136,"MEAN_ANOMALY":127.1429,"EPHEMERIS_TYPE":0,"CLASSIFICATION_TYPE":"U","NORAD_CAT_ID":58184,"ELEMENT_SET_NO":999,"REV_AT_EPOCH":579,"BSTAR":0.0037855343,"MEAN_MOTION_DOT":0.00105253,"MEAN_MOTION_DDOT":0},{"OBJECT_NAME":"CZ-6A DEB","OBJECT_ID":"2022-151SD","EPOCH":"2026-03-09T05:39:59.511744","MEAN_MOTION":15.24168391,"ECCENTRICITY":0.00253,"INCLINATION":98.6557,"RA_OF_ASC_NODE":156.754,"ARG_OF_PERICENTER":175.9698,"MEAN_ANOMALY":184.1745,"EPHEMERIS_TYPE":0,"CLASSIFICATION_TYPE":"U","NORAD_CAT_ID":54940,"ELEMENT_SET_NO":999,"REV_AT_EPOCH":17670,"BSTAR":0.0092674,"MEAN_MOTION_DOT":0.00234465,"MEAN_MOTION_DDOT":0}]
